[ {"name": "STARLINK-2298", "line1": "1 48022U 21024AX  26122.19791082  .00070603  00000+0  14171-2 0  9996", "line2": "2 48022  53.1248  80.0148 0003381  93.4023 266.7370 15.46054880282866"}, {"name": "STARLINK-2292", "line1": "1 48023U 21024AY  26122.17993983  .00071517  00000+0  18138-2 0  9991", "line2": "2 48023  53.1212  81.8336 0002912  99.2461 260.8873 15.39062272282831"}, {"name": "STARLINK-2299", "line1": "1 48029U 21024BE  26122.17027169  .00084132  00000+0  14584-2 0  9999", "line2": "2 48029  53.1176  80.5876 0001932 121.4724 238.6474 15.50190222282854"}, {"name": "STARLINK-2404", "line1": "1 48093U 21027B   26122.12037058  .00002213  00000+0  83009-4 0  9996", "line2": "2 48093  53.1598 266.5234 0001052  94.3982 265.7140 15.31712418280848"}, {"name": "STARLINK-2412", "line1": "1 48094U 21027C   26122.14737550  .00004038  00000+0  14837-3 0  9992", "line2": "2 48094  53.1597 276.9685 0001064  95.6735 264.4387 15.30202591280705"}, {"name": "STARLINK-2414", "line1": "1 48095U 21027D   26122.15109179  .00000887  00000+0  40343-4 0  9994", "line2": "2 48095  53.1615 276.9131 0001138  96.6080 263.5051 15.31705490280715"}, {"name": "STARLINK-2417", "line1": "1 48096U 21027E   26122.14179071  .00007351  00000+0  24833-3 0  9990", "line2": "2 48096  53.1597 277.1046 0001047 100.0778 260.0341 15.31708586280696"}, {"name": "STARLINK-2418", "line1": "1 48097U 21027F   26122.00002315 -.00012602  00000+0 -39467-3 0  9998", "line2": "2 48097  53.1605 265.0729 0000952  80.0928 262.1576 15.31727372  5871"}, {"name": "STARLINK-2421", "line1": "1 48098U 21027G   26122.09706742  .00005778  00000+0  19773-3 0  9995", "line2": "2 48098  53.1587 266.6363 0001162  94.7628 265.3506 15.31713981280835"}, {"name": "STARLINK-2428", "line1": "1 48099U 21027H   26121.71829761  .00000427  00000+0  25507-4 0  9990", "line2": "2 48099  53.1588 281.2647 0000908  93.4644 266.6461 15.31705141280592"}, {"name": "STARLINK-2430", "line1": "1 48100U 21027J   26121.69125798 -.00000834  00000+0 -15100-4 0  9991", "line2": "2 48100  53.1591 266.0741 0001097  69.6080 290.5040 15.31704393280805"}, {"name": "STARLINK-2436", "line1": "1 48101U 21027K   26122.10640752  .00004077  00000+0  14302-3 0  9994", "line2": "2 48101  53.1601 266.7150 0001112  97.3176 262.7951 15.31710956280849"}, {"name": "STARLINK-2439", "line1": "1 48104U 21027N   26122.11543882  .00012021  00000+0  39845-3 0  9991", "line2": "2 48104  53.1601 264.4035 0001028  80.1284 279.9833 15.31704800280878"}, {"name": "STARLINK-2440", "line1": "1 48105U 21027P   26121.97494821  .00005330  00000+0  19195-3 0  9994", "line2": "2 48105  53.1607 213.5005 0001291  87.2081 272.9068 15.30202992281566"}, {"name": "STARLINK-2442", "line1": "1 48106U 21027Q   26122.09760242  .00006685  00000+0  24366-3 0  9992", "line2": "2 48106  53.1546 264.3236 0001127  87.5240 272.5890 15.29374280280866"}, {"name": "STARLINK-2443", "line1": "1 48107U 21027R   26122.16670139  .00028675  00000+0  93259-3 0  9996", "line2": "2 48107  53.1607 264.1626 0001079  76.1037 129.7445 15.31688889  5859"}, {"name": "STARLINK-2448", "line1": "1 48111U 21027V   26122.11069874  .00060740  00000+0  16601-2 0  9998", "line2": "2 48111  53.1586 265.3958 0003865 282.1686  77.8885 15.36829954280867"}, {"name": "STARLINK-2449", "line1": "1 48112U 21027W   26121.71795118 -.00000117  00000+0  79873-5 0  9997", "line2": "2 48112  53.1596 281.2509 0000886  97.1533 262.9569 15.31703545280603"}, {"name": "STARLINK-2450", "line1": "1 48113U 21027X   26121.72694598 -.00000115  00000+0  80386-5 0  9998", "line2": "2 48113  53.1590 278.7297 0000969  77.9037 282.2073 15.31704128280625"}, {"name": "STARLINK-2452", "line1": "1 48115U 21027Z   26122.00002315 -.00010959  00000+0 -34169-3 0  9996", "line2": "2 48115  53.1580 267.0732 0001103  93.6870 245.3016 15.31719920  5877"}, {"name": "STARLINK-2454", "line1": "1 48116U 21027AA  26122.13157330  .00009192  00000+0  32204-3 0  9992", "line2": "2 48116  53.1598 277.0305 0001168  93.0834 267.0300 15.30203201280690"}, {"name": "STARLINK-2455", "line1": "1 48117U 21027AB  26122.08707816  .00000869  00000+0  39737-4 0  9998", "line2": "2 48117  53.1589 264.2378 0000533  87.6356 272.4707 15.31706266280862"}, {"name": "STARLINK-2459", "line1": "1 48119U 21027AD  26122.08741120  .00009107  00000+0  30478-3 0  9992", "line2": "2 48119  53.1586 264.1640 0001092  69.6621 290.4497 15.31709230280857"}, {"name": "STARLINK-2460", "line1": "1 48120U 21027AE  26122.00002315  .00021424  00000+0  52596-3 0  9993", "line2": "2 48120  53.1588 279.5295 0001247  67.0373  21.8011 15.40652390  5672"}, {"name": "STARLINK-2462", "line1": "1 48121U 21027AF  26121.57972707  .00001709  00000+0  66820-4 0  9996", "line2": "2 48121  53.1603 269.0564 0001587  95.1716 264.9467 15.31709493280750"}, {"name": "STARLINK-2464", "line1": "1 48123U 21027AH  26122.09210206  .00001538  00000+0  61321-4 0  9996", "line2": "2 48123  53.1586 264.3431 0001269  55.1363 304.9758 15.31701650280861"}, {"name": "STARLINK-2465", "line1": "1 48124U 21027AJ  26121.78480758  .00000444  00000+0  26056-4 0  9994", "line2": "2 48124  53.1589 268.1241 0001078  94.1921 265.9203 15.31705283280785"}, {"name": "STARLINK-2466", "line1": "1 48125U 21027AK  26122.15370102  .00002091  00000+0  82706-4 0  9992", "line2": "2 48125  53.1607 276.9546 0001293  83.3154 276.7994 15.30203890280692"}, {"name": "STARLINK-2467", "line1": "1 48126U 21027AL  26122.11039058  .00003332  00000+0  11907-3 0  9994", "line2": "2 48126  53.1621 264.1052 0001403  88.7477 271.3685 15.31707652280874"}, {"name": "STARLINK-2468", "line1": "1 48127U 21027AM  26122.00002315  .00007089  00000+0  23990-3 0  9997", "line2": "2 48127  53.1567 277.5559 0001011  65.6058  28.6072 15.31711530  5876"}, {"name": "STARLINK-2469", "line1": "1 48128U 21027AN  26121.96282766  .00048362  00000+0  20674-2 0  9996", "line2": "2 48128  53.1050 216.9354 0003253 332.5099  27.5725 15.22395508281507"}, {"name": "STARLINK-2471", "line1": "1 48129U 21027AP  26122.12314228  .00002400  00000+0  89050-4 0  9993", "line2": "2 48129  53.1583 277.1495 0001098  82.1585 277.9541 15.31709315280698"}, {"name": "STARLINK-2472", "line1": "1 48130U 21027AQ  26122.13283911  .00014825  00000+0  48853-3 0  9999", "line2": "2 48130  53.1588 279.7228 0001024  91.4034 268.7084 15.31701138280660"}, {"name": "STARLINK-2473", "line1": "1 48131U 21027AR  26122.12785963  .00005753  00000+0  20621-3 0  9996", "line2": "2 48131  53.1618 264.2914 0001200  92.7375 267.3763 15.30201716280861"}, {"name": "STARLINK-2474", "line1": "1 48132U 21027AS  26121.68101384  .00000841  00000+0  38871-4 0  9996", "line2": "2 48132  53.1592 281.4243 0001243  79.7665 280.3477 15.31700312280586"}, {"name": "STARLINK-2475", "line1": "1 48133U 21027AT  26122.15574667  .00001740  00000+0  67794-4 0  9993", "line2": "2 48133  53.1613 276.8241 0001199  77.7353 282.3782 15.31708539280703"}, {"name": "STARLINK-2476", "line1": "1 48134U 21027AU  26122.12775897  .00005157  00000+0  17775-3 0  9998", "line2": "2 48134  53.1587 276.8081 0001120  99.7627 260.3501 15.31713224280698"}, {"name": "STARLINK-2478", "line1": "1 48135U 21027AV  26122.14244715  .00007843  00000+0  26420-3 0  9992", "line2": "2 48135  53.1588 279.4561 0001490  87.8570 272.2602 15.31704550280660"}, {"name": "STARLINK-2479", "line1": "1 48136U 21027AW  26121.72232015  .00002171  00000+0  81688-4 0  9993", "line2": "2 48136  53.1587 278.9893 0001127  77.0843 283.0284 15.31708093280632"}, {"name": "STARLINK-2480", "line1": "1 48137U 21027AX  26121.69159797 -.00000675  00000+0 -13274-4 0  9990", "line2": "2 48137  53.1379 268.3533 0000750  71.8251 288.2829 15.25019854280761"}, {"name": "STARLINK-2481", "line1": "1 48138U 21027AY  26122.12843840  .00008560  00000+0  28721-3 0  9990", "line2": "2 48138  53.1583 279.3165 0001216  74.8629 285.2507 15.31710515280660"}, {"name": "STARLINK-2482", "line1": "1 48139U 21027AZ  26122.16670139  .00026393  00000+0  85963-3 0  9999", "line2": "2 48139  53.1589 264.1119 0001196  97.6180 315.8138 15.31685836  5842"}, {"name": "STARLINK-2483", "line1": "1 48140U 21027BA  26122.13713968  .00004138  00000+0  14500-3 0  9998", "line2": "2 48140  53.1596 277.1933 0001327  92.0889 268.0265 15.31710256280694"}, {"name": "STARLINK-2485", "line1": "1 48142U 21027BC  26122.11978863  .00001656  00000+0  65096-4 0  9994", "line2": "2 48142  53.1606 264.6455 0000866  87.5490 272.5611 15.31708906280865"}, {"name": "STARLINK-2486", "line1": "1 48143U 21027BD  26121.54881526  .00045535  00000+0  13216-2 0  9999", "line2": "2 48143  53.1585 214.7535 0004098 324.1710  35.9018 15.35079166281511"}, {"name": "STARLINK-2487", "line1": "1 48144U 21027BE  26121.68160727  .00003724  00000+0  13167-3 0  9998", "line2": "2 48144  53.1603 266.1337 0000913  66.6146 293.4951 15.31705723280794"}, {"name": "STARLINK-2491", "line1": "1 48148U 21027BJ  26122.14108088  .00001251  00000+0  54369-4 0  9999", "line2": "2 48148  53.1587 277.1544 0001129  95.4672 264.6458 15.30197871280683"}, {"name": "STARLINK-2492", "line1": "1 48149U 21027BK  26121.67625473 -.00000316  00000+0  13654-5 0  9994", "line2": "2 48149  53.1574 266.3017 0001102  98.7464 261.3661 15.29355918280799"}, {"name": "STARLINK-2493", "line1": "1 48150U 21027BL  26121.67945615  .00001677  00000+0  70434-4 0  9997", "line2": "2 48150  53.1581 266.2771 0001304  67.5068 292.6071 15.29363206280806"}, {"name": "STARLINK-2503", "line1": "1 48151U 21027BM  26121.68662328  .00001028  00000+0  44878-4 0  9999", "line2": "2 48151  53.1609 266.2816 0000753  96.6015 263.5072 15.31707191280806"}, {"name": "STARLINK-2567", "line1": "1 48276U 21036A   26122.11798693 -.00000834  00000+0 -15118-4 0  9992", "line2": "2 48276  53.1595 162.5360 0000362  44.5925 315.5106 15.31702117276925"}, {"name": "STARLINK-2569", "line1": "1 48277U 21036B   26122.18093507  .00040442  00000+0  14575-2 0  9993", "line2": "2 48277  53.1249 123.8689 0006065  41.0115 319.1340 15.28170050277477"}]